{
"type": "FeatureCollection",
"features": [
  { 
    "type": "Feature", 
    "properties": { "name": "India Boundary" }, 
    "geometry": { 
      "type": "LineString", 
      "coordinates": [ 
        [ 68.205, 23.782 ], [ 68.199, 23.848 ], [ 68.211, 23.878 ], [ 68.28, 23.931 ], [ 68.331, 23.927 ], [ 68.343, 23.969 ], [ 68.367, 23.991 ], [ 68.394, 23.966 ], [ 68.753, 23.972 ], [ 68.764, 24.296 ], [ 68.808, 24.314 ], [ 68.829, 24.315 ], [ 68.866, 24.212 ], [ 68.907, 24.28 ], [ 68.945, 24.302 ], [ 68.985, 24.228 ], [ 69.003, 24.223 ], [ 69.095, 24.274 ], [ 69.194, 24.236 ], [ 69.313, 24.282 ], [ 69.493, 24.268 ], [ 69.594, 24.292 ], [ 69.731, 24.171 ], [ 70.025, 24.171 ], [ 70.067, 24.199 ], [ 70.11, 24.295 ], [ 70.327, 24.352 ], [ 70.368, 24.351 ], [ 70.561, 24.421 ], [ 70.602, 24.408 ], [ 70.562, 24.354 ], [ 70.585, 24.29 ], [ 70.571, 24.252 ], [ 70.714, 24.216 ], [ 70.805, 24.221 ], [ 70.907, 24.259 ], [ 70.874, 24.295 ], [ 70.947, 24.349 ], [ 70.986, 24.365 ], [ 71.042, 24.351 ], [ 71.084, 24.395 ], [ 71.12, 24.402 ], [ 71.126, 24.42 ], [ 71.103, 24.436 ], [ 70.999, 24.444 ], [ 71.005, 24.523 ], [ 70.987, 24.544 ], [ 70.986, 24.596 ], [ 71.009, 24.635 ], [ 71.075, 24.662 ], [ 71.096, 24.689 ], [ 71.065, 24.718 ], [ 71.026, 24.809 ], [ 70.938, 24.939 ], [ 70.889, 25.148 ], [ 70.752, 25.278 ], [ 70.737, 25.333 ], [ 70.665, 25.397 ], [ 70.678, 25.525 ], [ 70.667, 25.531 ], [ 70.674, 25.676 ], [ 70.66, 25.702 ], [ 70.609, 25.715 ], [ 70.53, 25.683 ], [ 70.387, 25.674 ], [ 70.269, 25.714 ], [ 70.247, 25.762 ], [ 70.174, 25.828 ], [ 70.1, 25.938 ], [ 70.083, 26.083 ], [ 70.141, 26.156 ], [ 70.175, 26.252 ], [ 70.163, 26.295 ], [ 70.185, 26.374 ], [ 70.174, 26.551 ], [ 70.117, 26.587 ], [ 70.056, 26.601 ], [ 69.887, 26.579 ], [ 69.823, 26.589 ], [ 69.72, 26.655 ], [ 69.51, 26.744 ], [ 69.484, 26.805 ], [ 69.513, 27.01 ], [ 69.586, 27.183 ], [ 69.862, 27.402 ], [ 69.934, 27.498 ], [ 70.026, 27.563 ], [ 70.132, 27.806 ], [ 70.227, 27.901 ], [ 70.296, 27.936 ], [ 70.372, 28.012 ], [ 70.506, 28.037 ], [ 70.59, 28.01 ], [ 70.677, 27.922 ], [ 70.684, 27.828 ], [ 70.74, 27.742 ], [ 70.759, 27.721 ], [ 70.872, 27.706 ], [ 70.963, 27.729 ], [ 71.206, 27.835 ], [ 71.383, 27.873 ], [ 71.666, 27.878 ], [ 71.898, 27.961 ], [ 71.927, 28.122 ], [ 72.004, 28.219 ], [ 72.132, 28.313 ], [ 72.206, 28.394 ], [ 72.299, 28.67 ], [ 72.391, 28.77 ], [ 72.733, 28.948 ], [ 72.946, 29.028 ], [ 73.004, 29.153 ], [ 73.084, 29.236 ], [ 73.282, 29.572 ], [ 73.397, 29.946 ], [ 73.597, 30.019 ], [ 73.807, 30.068 ], [ 73.972, 30.198 ], [ 73.957, 30.276 ], [ 73.931, 30.32 ], [ 73.88, 30.36 ], [ 73.974, 30.444 ], [ 73.926, 30.439 ], [ 73.934, 30.49 ], [ 73.964, 30.456 ], [ 73.964, 30.485 ], [ 73.982, 30.504 ], [ 74.02, 30.514 ], [ 74.012, 30.534 ], [ 74.031, 30.527 ], [ 74.039, 30.543 ], [ 74.057, 30.519 ], [ 74.072, 30.523 ], [ 74.091, 30.549 ], [ 74.073, 30.555 ], [ 74.102, 30.579 ], [ 74.096, 30.612 ], [ 74.118, 30.608 ], [ 74.127, 30.635 ], [ 74.148, 30.631 ], [ 74.193, 30.665 ], [ 74.233, 30.725 ], [ 74.287, 30.736 ], [ 74.261, 30.775 ], [ 74.302, 30.779 ], [ 74.295, 30.794 ], [ 74.32, 30.847 ], [ 74.382, 30.86 ], [ 74.361, 30.874 ], [ 74.366, 30.893 ], [ 74.423, 30.908 ], [ 74.41, 30.924 ], [ 74.429, 30.931 ], [ 74.414, 30.93 ], [ 74.416, 30.94 ], [ 74.546, 30.992 ], [ 74.543, 31.017 ], [ 74.568, 31.055 ], [ 74.597, 31.038 ], [ 74.671, 31.054 ], [ 74.696, 31.074 ], [ 74.689, 31.128 ], [ 74.659, 31.134 ], [ 74.636, 31.118 ], [ 74.631, 31.133 ], [ 74.603, 31.134 ], [ 74.611, 31.099 ], [ 74.571, 31.081 ], [ 74.552, 31.086 ], [ 74.548, 31.122 ], [ 74.51, 31.132 ], [ 74.526, 31.212 ], [ 74.517, 31.228 ], [ 74.533, 31.25 ], [ 74.521, 31.272 ], [ 74.542, 31.304 ], [ 74.526, 31.312 ], [ 74.549, 31.335 ], [ 74.552, 31.364 ], [ 74.584, 31.379 ], [ 74.601, 31.42 ], [ 74.655, 31.426 ], [ 74.639, 31.444 ], [ 74.651, 31.459 ], [ 74.627, 31.477 ], [ 74.636, 31.485 ], [ 74.609, 31.5 ], [ 74.587, 31.496 ], [ 74.578, 31.498 ], [ 74.575, 31.501 ], [ 74.584, 31.521 ], [ 74.613, 31.527 ], [ 74.616, 31.569 ], [ 74.555, 31.608 ], [ 74.535, 31.678 ], [ 74.487, 31.715 ], [ 74.504, 31.741 ], [ 74.559, 31.758 ], [ 74.558, 31.805 ], [ 74.607, 31.869 ], [ 74.608, 31.89 ], [ 74.636, 31.884 ], [ 74.667, 31.923 ], [ 74.719, 31.924 ], [ 74.721, 31.942 ], [ 74.757, 31.944 ], [ 74.756, 31.956 ], [ 74.819, 31.959 ], [ 74.829, 31.999 ], [ 74.88, 32.032 ], [ 74.869, 32.042 ], [ 74.879, 32.054 ], [ 74.928, 32.066 ], [ 75.012, 32.036 ], [ 75.069, 32.067 ], [ 75.105, 32.059 ], [ 75.123, 32.081 ], [ 75.174, 32.068 ], [ 75.198, 32.083 ], [ 75.203, 32.12 ], [ 75.24, 32.091 ], [ 75.279, 32.118 ], [ 75.283, 32.148 ], [ 75.322, 32.179 ], [ 75.316, 32.208 ], [ 75.372, 32.225 ], [ 75.382, 32.269 ], [ 75.32, 32.297 ], [ 75.338, 32.321 ], [ 75.323, 32.343 ], [ 75.288, 32.355 ], [ 75.285, 32.372 ], [ 75.258, 32.371 ], [ 75.256, 32.389 ], [ 75.194, 32.401 ], [ 75.19, 32.426 ], [ 75.131, 32.409 ], [ 75.101, 32.478 ], [ 75.085, 32.469 ], [ 75.028, 32.497 ], [ 75.019, 32.466 ], [ 74.951, 32.447 ], [ 74.938, 32.471 ], [ 74.897, 32.468 ], [ 74.877, 32.493 ], [ 74.819, 32.498 ], [ 74.795, 32.476 ], [ 74.688, 32.487 ], [ 74.691, 32.533 ], [ 74.663, 32.544 ], [ 74.674, 32.568 ], [ 74.653, 32.563 ], [ 74.659, 32.597 ], [ 74.639, 32.615 ], [ 74.695, 32.661 ], [ 74.653, 32.697 ], [ 74.705, 32.842 ], [ 74.641, 32.819 ], [ 74.635, 32.807 ], [ 74.658, 32.788 ], [ 74.632, 32.776 ], [ 74.634, 32.749 ], [ 74.619, 32.761 ], [ 74.577, 32.748 ], [ 74.563, 32.76 ], [ 74.512, 32.745 ], [ 74.512, 32.764 ], [ 74.486, 32.764 ], [ 74.459, 32.788 ], [ 74.415, 32.785 ], [ 74.391, 32.763 ], [ 74.355, 32.767 ], [ 74.314, 32.797 ], [ 74.303, 32.83 ], [ 74.22, 32.849 ], [ 74.211, 32.873 ], [ 74.179, 32.889 ], [ 74.069, 32.91 ], [ 74.058, 32.934 ], [ 74.0, 32.935 ], [ 74.006, 32.955 ], [ 73.972, 32.967 ], [ 73.965, 32.987 ], [ 73.826, 33.004 ], [ 73.826, 32.977 ], [ 73.79, 32.967 ], [ 73.794, 33.004 ], [ 73.749, 33.034 ], [ 73.743, 33.066 ], [ 73.685, 33.087 ], [ 73.638, 33.085 ], [ 73.631, 33.139 ], [ 73.649, 33.138 ], [ 73.665, 33.161 ], [ 73.668, 33.202 ], [ 73.648, 33.223 ], [ 73.633, 33.208 ], [ 73.638, 33.23 ], [ 73.606, 33.274 ], [ 73.614, 33.293 ], [ 73.589, 33.324 ], [ 73.598, 33.337 ], [ 73.578, 33.329 ], [ 73.57, 33.343 ], [ 73.584, 33.356 ], [ 73.565, 33.366 ], [ 73.603, 33.419 ], [ 73.587, 33.423 ], [ 73.596, 33.439 ], [ 73.632, 33.448 ], [ 73.602, 33.497 ], [ 73.619, 33.495 ], [ 73.611, 33.513 ], [ 73.642, 33.529 ], [ 73.624, 33.541 ], [ 73.629, 33.571 ], [ 73.605, 33.589 ], [ 73.612, 33.604 ], [ 73.567, 33.618 ], [ 73.578, 33.638 ], [ 73.567, 33.669 ], [ 73.603, 33.715 ], [ 73.595, 33.751 ], [ 73.56, 33.781 ], [ 73.594, 33.89 ], [ 73.548, 33.937 ], [ 73.516, 33.999 ], [ 73.491, 34.14 ], [ 73.499, 34.211 ], [ 73.473, 34.252 ], [ 73.481, 34.289 ], [ 73.457, 34.276 ], [ 73.43, 34.346 ], [ 73.396, 34.372 ], [ 73.428, 34.426 ], [ 73.431, 34.521 ], [ 73.454, 34.571 ], [ 73.532, 34.571 ], [ 73.556, 34.59 ], [ 73.611, 34.585 ], [ 73.65, 34.562 ], [ 73.654, 34.6 ], [ 73.695, 34.65 ], [ 73.659, 34.673 ], [ 73.73, 34.772 ], [ 73.772, 34.796 ], [ 73.822, 34.792 ], [ 73.838, 34.813 ], [ 73.919, 34.812 ], [ 73.93, 34.832 ], [ 73.961, 34.839 ], [ 73.967, 34.864 ], [ 74.03, 34.876 ], [ 74.037, 34.919 ], [ 74.071, 34.935 ], [ 74.059, 34.993 ], [ 74.11, 35.016 ], [ 74.067, 35.046 ], [ 74.071, 35.059 ], [ 74.101, 35.099 ], [ 74.134, 35.11 ], [ 74.106, 35.126 ], [ 74.112, 35.148 ], [ 74.034, 35.147 ], [ 74.003, 35.184 ], [ 73.957, 35.168 ], [ 73.924, 35.204 ], [ 73.861, 35.207 ], [ 73.808, 35.239 ], [ 73.77, 35.236 ], [ 73.734, 35.209 ], [ 73.708, 35.222 ], [ 73.725, 35.273 ], [ 73.695, 35.318 ], [ 73.695, 35.369 ], [ 73.727, 35.419 ], [ 73.792, 35.454 ], [ 73.778, 35.523 ], [ 73.73, 35.529 ], [ 73.721, 35.549 ], [ 73.659, 35.548 ], [ 73.628, 35.569 ], [ 73.562, 35.546 ], [ 73.528, 35.567 ], [ 73.501, 35.558 ], [ 73.477, 35.572 ], [ 73.398, 35.557 ], [ 73.364, 35.597 ], [ 73.269, 35.624 ], [ 73.133, 35.711 ], [ 73.126, 35.776 ], [ 73.149, 35.831 ], [ 73.084, 35.877 ], [ 73.029, 35.847 ], [ 72.987, 35.86 ], [ 72.918, 35.839 ], [ 72.892, 35.844 ], [ 72.891, 35.874 ], [ 72.839, 35.867 ], [ 72.819, 35.882 ], [ 72.784, 35.842 ], [ 72.761, 35.832 ], [ 72.727, 35.853 ], [ 72.684, 35.822 ], [ 72.628, 35.858 ], [ 72.585, 35.859 ], [ 72.558, 35.898 ], [ 72.519, 35.906 ], [ 72.513, 35.936 ], [ 72.535, 35.951 ], [ 72.539, 35.986 ], [ 72.56, 35.987 ], [ 72.584, 36.017 ], [ 72.569, 36.045 ], [ 72.536, 36.047 ], [ 72.517, 36.067 ], [ 72.528, 36.11 ], [ 72.562, 36.14 ], [ 72.536, 36.175 ], [ 72.581, 36.253 ], [ 72.619, 36.269 ], [ 72.685, 36.244 ], [ 72.681, 36.271 ], [ 72.759, 36.299 ], [ 72.816, 36.356 ], [ 72.854, 36.366 ], [ 72.876, 36.395 ], [ 72.86, 36.436 ], [ 72.908, 36.461 ], [ 72.979, 36.457 ], [ 72.978, 36.511 ], [ 73.052, 36.533 ], [ 73.097, 36.606 ], [ 73.074, 36.629 ], [ 73.068, 36.701 ], [ 73.116, 36.684 ], [ 73.171, 36.724 ], [ 73.201, 36.696 ], [ 73.238, 36.712 ], [ 73.294, 36.704 ], [ 73.348, 36.716 ], [ 73.352, 36.735 ], [ 73.421, 36.743 ], [ 73.498, 36.713 ], [ 73.579, 36.722 ], [ 73.593, 36.693 ], [ 73.683, 36.687 ], [ 73.71, 36.712 ], [ 73.775, 36.702 ], [ 73.796, 36.719 ], [ 73.872, 36.701 ], [ 73.885, 36.73 ], [ 73.868, 36.766 ], [ 73.837, 36.795 ], [ 73.802, 36.794 ], [ 73.798, 36.818 ], [ 73.759, 36.816 ], [ 73.706, 36.838 ], [ 73.706, 36.858 ], [ 73.667, 36.881 ], [ 73.671, 36.912 ], [ 73.729, 36.898 ], [ 73.751, 36.91 ], [ 73.801, 36.888 ], [ 73.82, 36.903 ], [ 73.859, 36.897 ], [ 73.893, 36.876 ], [ 73.915, 36.883 ], [ 73.962, 36.839 ], [ 74.046, 36.811 ], [ 74.085, 36.842 ], [ 74.133, 36.848 ], [ 74.156, 36.91 ], [ 74.249, 36.894 ], [ 74.42, 36.995 ], [ 74.52, 36.996 ], [ 74.54, 36.963 ], [ 74.564, 36.958 ], [ 74.58, 37.021 ], [ 74.568, 37.052 ], [ 74.681, 37.087 ], [ 74.707, 37.087 ], [ 74.747, 37.02 ], [ 74.769, 37.041 ], [ 74.839, 37.036 ], [ 74.838, 36.998 ], [ 74.91, 36.916 ], [ 75.016, 36.993 ], [ 75.076, 36.961 ], [ 75.107, 36.963 ], [ 75.174, 37.001 ], [ 75.22, 37.052 ], [ 75.343, 37.068 ], [ 75.36, 37.039 ], [ 75.352, 36.991 ], [ 75.367, 36.975 ], [ 75.414, 36.977 ], [ 75.406, 36.908 ], [ 75.441, 36.898 ], [ 75.462, 36.83 ], [ 75.607, 36.779 ], [ 75.731, 36.623 ], [ 75.789, 36.578 ], [ 75.928, 36.521 ], [ 76.084, 36.484 ], [ 76.178, 36.398 ], [ 76.251, 36.357 ], [ 76.355, 36.368 ], [ 76.407, 36.327 ], [ 76.436, 36.322 ], [ 76.454, 36.276 ], [ 76.438, 36.262 ], [ 76.479, 36.223 ], [ 76.555, 36.198 ], [ 76.568, 36.178 ], [ 76.616, 36.173 ], [ 76.647, 36.191 ], [ 76.711, 36.135 ], [ 76.728, 36.087 ], [ 76.81, 36.053 ], [ 76.814, 36.027 ], [ 76.731, 35.96 ], [ 76.814, 35.849 ], [ 76.855, 35.84 ], [ 76.921, 35.793 ], [ 77.002, 35.776 ], [ 77.094, 35.8 ], [ 77.135, 35.794 ], [ 77.149, 35.77 ], [ 77.173, 35.765 ], [ 77.177, 35.735 ], [ 77.227, 35.728 ], [ 77.236, 35.71 ], [ 77.284, 35.72 ], [ 77.319, 35.697 ], [ 77.335, 35.72 ], [ 77.368, 35.717 ], [ 77.403, 35.662 ], [ 77.438, 35.655 ], [ 77.434, 35.609 ], [ 77.465, 35.594 ], [ 77.462, 35.548 ], [ 77.484, 35.534 ], [ 77.435, 35.516 ], [ 77.388, 35.55 ], [ 77.321, 35.534 ], [ 77.391, 35.472 ], [ 77.449, 35.461 ], [ 77.526, 35.484 ], [ 77.626, 35.466 ], [ 77.649, 35.486 ], [ 77.672, 35.468 ], [ 77.7, 35.474 ], [ 77.737, 35.524 ], [ 77.778, 35.494 ], [ 77.822, 35.514 ], [ 77.907, 35.467 ], [ 77.929, 35.495 ], [ 77.983, 35.456 ], [ 77.964, 35.498 ], [ 77.935, 35.516 ], [ 77.971, 35.566 ], [ 77.96, 35.604 ], [ 77.999, 35.586 ], [ 78.046, 35.587 ], [ 78.085, 35.553 ], [ 78.147, 35.54 ], [ 78.173, 35.599 ], [ 78.168, 35.628 ], [ 78.197, 35.625 ], [ 78.21, 35.663 ], [ 78.258, 35.642 ], [ 78.283, 35.66 ], [ 78.278, 35.716 ], [ 78.4, 35.731 ], [ 78.435, 35.778 ], [ 78.527, 35.757 ], [ 78.647, 35.818 ], [ 78.675, 35.852 ], [ 78.781, 35.864 ], [ 78.827, 35.848 ], [ 78.968, 35.884 ], [ 79.054, 35.841 ], [ 79.156, 35.832 ], [ 79.22, 35.889 ], [ 79.203, 35.925 ], [ 79.213, 35.954 ], [ 79.262, 35.984 ], [ 79.407, 35.986 ], [ 79.435, 35.893 ], [ 79.536, 35.874 ], [ 79.748, 35.792 ], [ 79.892, 35.772 ], [ 79.951, 35.819 ], [ 80.008, 35.828 ], [ 80.056, 35.783 ], [ 80.123, 35.664 ], [ 80.237, 35.632 ], [ 80.307, 35.59 ], [ 80.342, 35.462 ], [ 80.291, 35.428 ], [ 80.292, 35.359 ], [ 80.268, 35.295 ], [ 80.23, 35.2 ], [ 80.186, 35.148 ], [ 80.187, 35.012 ], [ 80.114, 34.858 ], [ 80.074, 34.825 ], [ 80.063, 34.707 ], [ 79.949, 34.666 ], [ 79.864, 34.676 ], [ 79.775, 34.611 ], [ 79.792, 34.573 ], [ 79.765, 34.562 ], [ 79.76, 34.538 ], [ 79.817, 34.507 ], [ 79.813, 34.481 ], [ 79.788, 34.466 ], [ 79.663, 34.468 ], [ 79.597, 34.486 ], [ 79.514, 34.46 ], [ 79.53, 34.406 ], [ 79.568, 34.395 ], [ 79.565, 34.318 ], [ 79.596, 34.264 ], [ 79.569, 34.206 ], [ 79.498, 34.188 ], [ 79.49, 34.12 ], [ 79.421, 34.078 ], [ 79.414, 34.047 ], [ 79.44, 34.023 ], [ 79.434, 34.013 ], [ 79.144, 34.058 ], [ 79.134, 34.018 ], [ 79.077, 34.014 ], [ 79.011, 34.044 ], [ 78.912, 34.01 ], [ 78.891, 33.974 ], [ 78.962, 33.875 ], [ 79.005, 33.772 ], [ 79.057, 33.758 ], [ 79.028, 33.749 ], [ 79.014, 33.685 ], [ 79.067, 33.664 ], [ 79.094, 33.634 ], [ 79.087, 33.617 ], [ 79.007, 33.608 ], [ 78.908, 33.62 ], [ 78.888, 33.574 ], [ 78.914, 33.562 ], [ 78.944, 33.512 ], [ 78.928, 33.439 ], [ 78.956, 33.353 ], [ 78.981, 33.328 ], [ 79.085, 33.289 ], [ 79.234, 33.289 ], [ 79.437, 33.252 ], [ 79.427, 33.186 ], [ 79.362, 33.093 ], [ 79.376, 33.034 ], [ 79.315, 33.007 ], [ 79.433, 32.925 ], [ 79.541, 32.783 ], [ 79.582, 32.772 ], [ 79.605, 32.733 ], [ 79.478, 32.589 ], [ 79.446, 32.572 ], [ 79.424, 32.527 ], [ 79.376, 32.532 ], [ 79.369, 32.568 ], [ 79.304, 32.592 ], [ 79.262, 32.534 ], [ 79.23, 32.528 ], [ 79.185, 32.479 ], [ 79.115, 32.47 ], [ 79.129, 32.427 ], [ 79.105, 32.41 ], [ 79.097, 32.376 ], [ 79.012, 32.383 ], [ 78.963, 32.337 ], [ 78.937, 32.371 ], [ 78.838, 32.439 ], [ 78.806, 32.443 ], [ 78.758, 32.554 ], [ 78.78, 32.604 ], [ 78.74, 32.656 ], [ 78.75, 32.698 ], [ 78.703, 32.66 ], [ 78.647, 32.654 ], [ 78.604, 32.6 ], [ 78.559, 32.62 ], [ 78.516, 32.61 ], [ 78.49, 32.585 ], [ 78.454, 32.585 ], [ 78.397, 32.526 ], [ 78.453, 32.504 ], [ 78.466, 32.481 ], [ 78.453, 32.456 ], [ 78.489, 32.42 ], [ 78.532, 32.416 ], [ 78.48, 32.346 ], [ 78.481, 32.28 ], [ 78.452, 32.239 ], [ 78.571, 32.242 ], [ 78.61, 32.205 ], [ 78.591, 32.151 ], [ 78.615, 32.111 ], [ 78.655, 32.109 ], [ 78.743, 32.005 ], [ 78.778, 31.994 ], [ 78.768, 31.931 ], [ 78.74, 31.886 ], [ 78.743, 31.838 ], [ 78.704, 31.811 ], [ 78.705, 31.776 ], [ 78.751, 31.682 ], [ 78.797, 31.683 ], [ 78.803, 31.646 ], [ 78.846, 31.608 ], [ 78.774, 31.546 ], [ 78.732, 31.535 ], [ 78.721, 31.507 ], [ 78.725, 31.484 ], [ 78.763, 31.485 ], [ 78.81, 31.448 ], [ 78.79, 31.396 ], [ 78.848, 31.367 ], [ 78.843, 31.325 ], [ 78.872, 31.308 ], [ 81.036, 28.414 ], [ 81.08, 28.385 ], [ 81.211, 28.361 ], [ 81.234, 28.325 ], [ 81.233, 28.289 ], [ 81.321, 28.198 ], [ 81.321, 28.169 ], [ 81.302, 28.165 ], [ 81.328, 28.148 ], [ 81.318, 28.134 ], [ 81.371, 28.143 ], [ 81.374, 28.177 ], [ 81.447, 28.161 ], [ 81.45, 28.141 ], [ 81.484, 28.119 ], [ 81.478, 28.083 ], [ 81.624, 28.002 ], [ 81.698, 27.988 ], [ 81.885, 27.857 ], [ 81.926, 27.86 ], [ 81.968, 27.929 ], [ 82.07, 27.924 ], [ 82.121, 27.866 ], [ 82.208, 27.844 ], [ 82.449, 27.679 ], [ 82.708, 27.723 ], [ 82.712, 27.665 ], [ 82.737, 27.643 ], [ 82.735, 27.61 ], [ 82.756, 27.588 ], [ 82.736, 27.502 ], [ 82.929, 27.501 ], [ 82.954, 27.468 ], [ 83.035, 27.449 ], [ 83.188, 27.454 ], [ 83.272, 27.383 ], [ 83.272, 27.353 ], [ 83.318, 27.33 ], [ 83.359, 27.343 ], [ 83.409, 27.413 ], [ 83.384, 27.436 ], [ 83.402, 27.457 ], [ 83.388, 27.48 ], [ 83.614, 27.469 ], [ 83.864, 27.347 ], [ 83.883, 27.378 ], [ 83.833, 27.426 ], [ 83.847, 27.446 ], [ 83.878, 27.436 ], [ 83.997, 27.446 ], [ 84.027, 27.433 ], [ 84.095, 27.489 ], [ 84.098, 27.517 ], [ 84.146, 27.519 ], [ 84.149, 27.486 ], [ 84.206, 27.47 ], [ 84.209, 27.443 ], [ 84.254, 27.454 ], [ 84.292, 27.385 ], [ 84.622, 27.337 ], [ 84.691, 27.215 ], [ 84.674, 27.096 ], [ 84.646, 27.076 ], [ 84.643, 27.046 ], [ 84.757, 27.003 ], [ 84.774, 27.018 ], [ 84.794, 26.996 ], [ 84.825, 27.021 ], [ 84.892, 26.97 ], [ 84.963, 26.96 ], [ 84.978, 26.94 ], [ 84.968, 26.916 ], [ 85.061, 26.887 ], [ 85.031, 26.874 ], [ 85.024, 26.854 ], [ 85.191, 26.87 ], [ 85.177, 26.81 ], [ 85.211, 26.758 ], [ 85.335, 26.742 ], [ 85.408, 26.791 ], [ 85.452, 26.781 ], [ 85.479, 26.802 ], [ 85.496, 26.797 ], [ 85.498, 26.812 ], [ 85.566, 26.841 ], [ 85.576, 26.861 ], [ 85.586, 26.847 ], [ 85.624, 26.874 ], [ 85.721, 26.82 ], [ 85.734, 26.796 ], [ 85.732, 26.654 ], [ 85.802, 26.624 ], [ 85.818, 26.603 ], [ 85.851, 26.609 ], [ 85.851, 26.569 ], [ 85.929, 26.617 ], [ 85.948, 26.614 ], [ 85.96, 26.651 ], [ 86.028, 26.667 ], [ 86.139, 26.629 ], [ 86.136, 26.606 ], [ 86.193, 26.614 ], [ 86.196, 26.594 ], [ 86.218, 26.588 ], [ 86.252, 26.617 ], [ 86.333, 26.619 ], [ 86.499, 26.542 ], [ 86.541, 26.539 ], [ 86.57, 26.497 ], [ 86.693, 26.451 ], [ 86.731, 26.423 ], [ 86.766, 26.459 ], [ 86.834, 26.439 ], [ 86.894, 26.462 ], [ 86.892, 26.486 ], [ 86.93, 26.49 ], [ 86.932, 26.517 ], [ 87.015, 26.532 ], [ 87.045, 26.587 ], [ 87.072, 26.586 ], [ 87.092, 26.45 ], [ 87.163, 26.404 ], [ 87.261, 26.409 ], [ 87.266, 26.374 ], [ 87.312, 26.372 ], [ 87.341, 26.348 ], [ 87.358, 26.361 ], [ 87.369, 26.408 ], [ 87.466, 26.44 ], [ 87.548, 26.418 ], [ 87.605, 26.381 ], [ 87.652, 26.393 ], [ 87.65, 26.406 ], [ 87.678, 26.416 ], [ 87.678, 26.436 ], [ 87.734, 26.408 ], [ 87.765, 26.41 ], [ 87.79, 26.469 ], [ 87.849, 26.436 ], [ 87.888, 26.487 ], [ 87.91, 26.458 ], [ 87.899, 26.449 ], [ 87.924, 26.447 ], [ 87.927, 26.418 ], [ 87.992, 26.393 ], [ 88.007, 26.361 ], [ 88.031, 26.365 ], [ 88.035, 26.392 ], [ 88.096, 26.439 ], [ 88.092, 26.463 ], [ 88.107, 26.476 ], [ 88.09, 26.507 ], [ 88.098, 26.538 ], [ 88.16, 26.636 ], [ 88.187, 26.748 ], [ 88.174, 26.865 ], [ 88.136, 26.898 ], [ 88.145, 26.922 ], [ 88.12, 26.951 ], [ 88.135, 26.986 ], [ 88.092, 27.005 ], [ 88.078, 27.035 ], [ 88.038, 27.036 ], [ 88.021, 27.088 ], [ 87.987, 27.119 ], [ 88.019, 27.171 ], [ 88.013, 27.216 ], [ 88.032, 27.286 ], [ 88.067, 27.336 ], [ 88.042, 27.373 ], [ 88.051, 27.413 ], [ 88.075, 27.433 ], [ 88.044, 27.496 ], [ 88.082, 27.584 ], [ 88.145, 27.665 ], [ 88.156, 27.736 ], [ 88.179, 27.746 ], [ 88.197, 27.791 ], [ 88.174, 27.82 ], [ 88.202, 27.837 ], [ 88.197, 27.854 ], [ 88.133, 27.882 ], [ 88.12, 27.916 ], [ 88.146, 27.964 ], [ 88.207, 27.941 ], [ 88.21, 27.962 ], [ 88.237, 27.971 ], [ 88.25, 27.941 ], [ 88.347, 27.989 ], [ 88.397, 27.978 ], [ 88.414, 28.0 ], [ 88.468, 28.017 ], [ 88.495, 28.054 ], [ 88.548, 28.036 ], [ 88.551, 28.082 ], [ 88.618, 28.1 ], [ 88.609, 28.129 ], [ 88.632, 28.122 ], [ 88.67, 28.074 ], [ 88.757, 28.078 ], [ 88.837, 28.018 ], [ 88.836, 27.929 ], [ 88.867, 27.92 ], [ 88.887, 27.857 ], [ 88.88, 27.83 ], [ 88.856, 27.816 ], [ 88.854, 27.756 ], [ 88.868, 27.742 ], [ 88.839, 27.705 ], [ 88.852, 27.672 ], [ 88.814, 27.64 ], [ 88.793, 27.575 ], [ 88.766, 27.566 ], [ 88.794, 27.525 ], [ 88.777, 27.468 ], [ 88.809, 27.424 ], [ 88.806, 27.407 ], [ 88.838, 27.378 ], [ 88.861, 27.387 ], [ 88.882, 27.344 ], [ 88.919, 27.321 ], [ 88.904, 27.273 ], [ 88.803, 27.248 ], [ 88.788, 27.184 ], [ 88.765, 27.177 ], [ 88.746, 27.144 ], [ 88.802, 27.14 ], [ 88.87, 27.11 ], [ 88.877, 26.944 ], [ 88.922, 26.994 ], [ 88.953, 26.968 ], [ 88.944, 26.934 ], [ 88.98, 26.917 ], [ 89.022, 26.941 ], [ 89.051, 26.916 ], [ 89.049, 26.899 ], [ 89.096, 26.892 ], [ 89.101, 26.843 ], [ 89.135, 26.808 ], [ 89.262, 26.814 ], [ 89.319, 26.851 ], [ 89.379, 26.862 ], [ 89.39, 26.842 ], [ 89.439, 26.841 ], [ 89.469, 26.803 ], [ 89.56, 26.813 ], [ 89.566, 26.799 ], [ 89.651, 26.776 ], [ 89.644, 26.748 ], [ 89.617, 26.729 ], [ 89.624, 26.718 ], [ 89.66, 26.72 ], [ 89.672, 26.74 ], [ 89.724, 26.722 ], [ 89.753, 26.735 ], [ 89.771, 26.701 ], [ 89.863, 26.701 ], [ 89.863, 26.737 ], [ 89.897, 26.724 ], [ 90.05, 26.73 ], [ 90.195, 26.773 ], [ 90.188, 26.807 ], [ 90.225, 26.855 ], [ 90.3, 26.848 ], [ 90.348, 26.875 ], [ 90.357, 26.901 ], [ 90.418, 26.904 ], [ 90.547, 26.817 ], [ 90.634, 26.794 ], [ 90.647, 26.777 ], [ 90.676, 26.784 ], [ 90.717, 26.768 ], [ 90.992, 26.791 ], [ 91.054, 26.781 ], [ 91.098, 26.822 ], [ 91.237, 26.812 ], [ 91.337, 26.781 ], [ 91.376, 26.795 ], [ 91.408, 26.84 ], [ 91.495, 26.791 ], [ 91.626, 26.821 ], [ 91.69, 26.806 ], [ 91.824, 26.864 ], [ 91.859, 26.913 ], [ 91.892, 26.919 ], [ 91.984, 26.858 ], [ 92.057, 26.847 ], [ 92.103, 26.867 ], [ 92.121, 26.96 ], [ 92.103, 27.004 ], [ 92.078, 27.017 ], [ 92.082, 27.041 ], [ 92.044, 27.051 ], [ 92.031, 27.08 ], [ 92.027, 27.168 ], [ 92.058, 27.19 ], [ 92.073, 27.233 ], [ 92.038, 27.257 ], [ 92.074, 27.279 ], [ 92.12, 27.272 ], [ 92.123, 27.287 ], [ 92.065, 27.327 ], [ 92.048, 27.363 ], [ 92.058, 27.4 ], [ 92.016, 27.481 ], [ 91.953, 27.46 ], [ 91.849, 27.486 ], [ 91.825, 27.468 ], [ 91.767, 27.465 ], [ 91.715, 27.474 ], [ 91.695, 27.505 ], [ 91.653, 27.483 ], [ 91.612, 27.544 ], [ 91.583, 27.556 ], [ 91.566, 27.584 ], [ 91.584, 27.608 ], [ 91.562, 27.631 ], [ 91.573, 27.661 ], [ 91.629, 27.699 ], [ 91.645, 27.769 ], [ 91.615, 27.822 ], [ 91.567, 27.817 ], [ 91.556, 27.856 ], [ 91.668, 27.853 ], [ 91.699, 27.815 ], [ 91.734, 27.8 ], [ 91.824, 27.808 ], [ 91.875, 27.723 ], [ 91.924, 27.717 ], [ 91.99, 27.769 ], [ 92.049, 27.758 ], [ 92.151, 27.832 ], [ 92.246, 27.868 ], [ 92.278, 27.853 ], [ 92.31, 27.778 ], [ 92.382, 27.795 ], [ 92.389, 27.815 ], [ 92.456, 27.809 ], [ 92.5, 27.846 ], [ 92.556, 27.817 ], [ 92.617, 27.888 ], [ 92.668, 27.902 ], [ 92.738, 27.988 ], [ 92.709, 28.04 ], [ 92.663, 28.068 ], [ 92.687, 28.129 ], [ 92.814, 28.21 ], [ 92.834, 28.176 ], [ 92.964, 28.261 ], [ 93.0, 28.236 ], [ 93.03, 28.269 ], [ 93.029, 28.31 ], [ 93.095, 28.308 ], [ 93.131, 28.33 ], [ 93.222, 28.328 ], [ 93.229, 28.406 ], [ 93.185, 28.442 ], [ 93.28, 28.507 ], [ 93.308, 28.57 ], [ 93.303, 28.593 ], [ 93.331, 28.608 ], [ 93.339, 28.638 ], [ 93.42, 28.653 ], [ 93.451, 28.674 ], [ 93.476, 28.652 ], [ 93.495, 28.683 ], [ 93.5, 28.659 ], [ 93.576, 28.655 ], [ 93.642, 28.657 ], [ 93.734, 28.686 ], [ 93.777, 28.666 ], [ 93.844, 28.707 ], [ 93.93, 28.67 ], [ 93.963, 28.712 ], [ 93.97, 28.75 ], [ 93.996, 28.772 ], [ 93.986, 28.805 ], [ 93.996, 28.843 ], [ 94.028, 28.854 ], [ 94.151, 28.959 ], [ 94.218, 29.082 ], [ 94.296, 29.147 ], [ 94.366, 29.156 ], [ 94.381, 29.191 ], [ 94.433, 29.226 ], [ 94.548, 29.222 ], [ 94.634, 29.346 ], [ 94.688, 29.324 ], [ 94.751, 29.27 ], [ 94.799, 29.216 ], [ 94.805, 29.167 ], [ 94.908, 29.178 ], [ 94.919, 29.159 ], [ 94.964, 29.16 ], [ 95.024, 29.131 ], [ 94.99, 29.172 ], [ 95.095, 29.142 ], [ 95.124, 29.115 ], [ 95.248, 29.108 ], [ 95.247, 29.07 ], [ 95.262, 29.053 ], [ 95.299, 29.06 ], [ 95.447, 29.031 ], [ 95.488, 29.081 ], [ 95.494, 29.14 ], [ 95.542, 29.129 ], [ 95.534, 29.212 ], [ 95.585, 29.215 ], [ 95.593, 29.257 ], [ 95.632, 29.247 ], [ 95.698, 29.301 ], [ 95.73, 29.308 ], [ 95.779, 29.358 ], [ 95.798, 29.339 ], [ 95.843, 29.355 ], [ 95.873, 29.393 ], [ 95.955, 29.384 ], [ 96.048, 29.454 ], [ 96.085, 29.459 ], [ 96.152, 29.396 ], [ 96.182, 29.349 ], [ 96.186, 29.305 ], [ 96.227, 29.246 ], [ 96.301, 29.242 ], [ 96.373, 29.284 ], [ 96.395, 29.247 ], [ 96.351, 29.172 ], [ 96.244, 29.152 ], [ 96.185, 29.089 ], [ 96.122, 29.071 ], [ 96.177, 28.992 ], [ 96.178, 28.963 ], [ 96.151, 28.953 ], [ 96.143, 28.929 ], [ 96.166, 28.892 ], [ 96.236, 28.927 ], [ 96.283, 28.982 ], [ 96.346, 29.021 ], [ 96.442, 29.03 ], [ 96.522, 29.067 ], [ 96.473, 28.977 ], [ 96.488, 28.952 ], [ 96.52, 28.956 ], [ 96.533, 28.875 ], [ 96.614, 28.767 ], [ 96.586, 28.709 ], [ 96.467, 28.671 ], [ 96.482, 28.619 ], [ 96.398, 28.57 ], [ 96.394, 28.547 ], [ 96.341, 28.54 ], [ 96.319, 28.519 ], [ 96.357, 28.469 ], [ 96.252, 28.394 ], [ 96.289, 28.389 ], [ 96.302, 28.369 ], [ 96.362, 28.374 ], [ 96.395, 28.327 ], [ 96.416, 28.333 ], [ 96.422, 28.37 ], [ 96.457, 28.406 ], [ 96.5, 28.402 ], [ 96.57, 28.446 ], [ 96.65, 28.45 ], [ 96.739, 28.41 ], [ 96.77, 28.361 ], [ 96.837, 28.357 ], [ 96.888, 28.378 ], [ 96.918, 28.343 ], [ 96.992, 28.304 ], [ 97.092, 28.352 ], [ 97.138, 28.333 ], [ 97.173, 28.286 ], [ 97.217, 28.29 ], [ 97.248, 28.266 ], [ 97.286, 28.267 ], [ 97.378, 28.217 ], [ 97.396, 28.185 ], [ 97.356, 28.187 ], [ 97.325, 28.148 ], [ 97.343, 28.114 ], [ 97.307, 28.074 ], [ 97.323, 28.057 ], [ 97.374, 28.063 ], [ 97.375, 28.035 ], [ 97.407, 28.019 ], [ 97.364, 27.968 ], [ 97.382, 27.893 ], [ 97.362, 27.874 ], [ 97.322, 27.889 ], [ 97.302, 27.916 ], [ 97.249, 27.899 ], [ 97.169, 27.815 ], [ 97.116, 27.785 ], [ 97.089, 27.734 ], [ 97.032, 27.748 ], [ 96.984, 27.666 ], [ 96.934, 27.66 ], [ 96.89, 27.607 ], [ 96.93, 27.515 ], [ 96.903, 27.453 ], [ 96.96, 27.404 ], [ 96.962, 27.373 ], [ 96.999, 27.319 ], [ 97.029, 27.307 ], [ 97.086, 27.238 ], [ 97.089, 27.212 ], [ 97.162, 27.14 ], [ 97.137, 27.09 ], [ 97.099, 27.107 ], [ 97.062, 27.09 ], [ 96.985, 27.154 ], [ 96.874, 27.18 ], [ 96.855, 27.21 ], [ 96.885, 27.226 ], [ 96.884, 27.26 ], [ 96.847, 27.271 ], [ 96.848, 27.29 ], [ 96.797, 27.346 ], [ 96.704, 27.372 ], [ 96.698, 27.358 ], [ 96.606, 27.366 ], [ 96.596, 27.333 ], [ 96.551, 27.318 ], [ 96.524, 27.286 ], [ 96.441, 27.306 ], [ 96.387, 27.284 ], [ 96.308, 27.294 ], [ 96.271, 27.271 ], [ 96.228, 27.279 ], [ 96.023, 27.18 ], [ 95.946, 27.052 ], [ 95.87, 27.013 ], [ 95.802, 27.015 ], [ 95.755, 26.954 ], [ 95.745, 26.898 ], [ 95.723, 26.881 ], [ 95.667, 26.903 ], [ 95.632, 26.874 ], [ 95.608, 26.813 ], [ 95.543, 26.836 ], [ 95.525, 26.823 ], [ 95.483, 26.746 ], [ 95.459, 26.742 ], [ 95.43, 26.7 ], [ 95.361, 26.671 ], [ 95.336, 26.674 ], [ 95.304, 26.651 ], [ 95.26, 26.655 ], [ 95.257, 26.676 ], [ 95.234, 26.683 ], [ 95.209, 26.649 ], [ 95.149, 26.616 ], [ 95.154, 26.583 ], [ 95.107, 26.541 ], [ 95.115, 26.518 ], [ 95.062, 26.45 ], [ 95.084, 26.447 ], [ 95.104, 26.421 ], [ 95.1, 26.394 ], [ 95.132, 26.378 ], [ 95.127, 26.254 ], [ 95.115, 26.233 ], [ 95.142, 26.212 ], [ 95.122, 26.185 ], [ 95.118, 26.102 ], [ 95.186, 26.073 ], [ 95.126, 25.986 ], [ 95.089, 25.95 ], [ 95.031, 25.931 ], [ 95.012, 25.898 ], [ 95.009, 25.867 ], [ 95.05, 25.8 ], [ 95.049, 25.759 ], [ 94.936, 25.668 ], [ 94.915, 25.608 ], [ 94.882, 25.591 ], [ 94.899, 25.565 ], [ 94.846, 25.562 ], [ 88.581, 23.761 ], [ 88.564, 23.711 ], [ 88.574, 23.667 ], [ 88.558, 23.649 ], [ 88.563, 23.637 ], [ 88.594, 23.641 ], [ 88.58, 23.603 ], [ 88.645, 23.609 ], [ 88.654, 23.556 ], [ 88.697, 23.516 ], [ 88.725, 23.512 ], [ 88.741, 23.48 ], [ 88.761, 23.478 ], [ 88.76, 23.49 ], [ 88.775, 23.48 ], [ 88.768, 23.49 ], [ 88.786, 23.507 ], [ 88.801, 23.497 ], [ 88.787, 23.469 ], [ 88.795, 23.443 ], [ 88.764, 23.448 ], [ 88.749, 23.401 ], [ 88.765, 23.368 ], [ 88.732, 23.352 ], [ 88.745, 23.308 ], [ 88.73, 23.32 ], [ 88.726, 23.299 ], [ 88.71, 23.313 ], [ 88.696, 23.302 ], [ 88.724, 23.273 ], [ 88.719, 23.255 ], [ 88.769, 23.245 ], [ 88.79, 23.218 ], [ 88.811, 23.221 ], [ 88.812, 23.256 ], [ 88.824, 23.233 ], [ 88.907, 23.236 ], [ 88.915, 23.213 ], [ 88.943, 23.206 ], [ 88.976, 23.224 ], [ 88.996, 23.215 ], [ 88.98, 23.213 ], [ 88.98, 23.183 ], [ 88.964, 23.193 ], [ 88.939, 23.177 ], [ 88.918, 23.129 ], [ 88.868, 23.101 ], [ 88.861, 23.077 ], [ 88.884, 23.04 ], [ 88.88, 23.006 ], [ 88.845, 23.01 ], [ 88.871, 22.979 ], [ 88.857, 22.969 ], [ 88.859, 22.944 ], [ 88.894, 22.952 ], [ 88.887, 22.933 ], [ 88.908, 22.92 ], [ 88.896, 22.913 ], [ 88.909, 22.88 ], [ 88.948, 22.879 ], [ 88.969, 22.845 ], [ 88.958, 22.796 ], [ 88.938, 22.793 ], [ 88.911, 22.758 ], [ 88.928, 22.718 ], [ 88.962, 22.695 ], [ 88.926, 22.65 ], [ 88.935, 22.626 ], [ 88.958, 22.616 ], [ 88.937, 22.591 ], [ 88.942, 22.562 ], [ 88.963, 22.549 ], [ 88.997, 22.47 ], [ 89.002, 22.43 ], [ 88.974, 22.412 ], [ 88.993, 22.391 ], [ 88.984, 22.327 ], [ 89.024, 22.298 ], [ 88.994, 22.287 ], [ 89.02, 22.268 ], [ 89.012, 22.254 ], [ 89.033, 22.259 ], [ 89.071, 22.197 ], [ 89.072, 22.148 ], [ 89.098, 22.154 ], [ 89.039, 22.1 ], [ 89.082, 22.011 ], [ 89.071, 22.011 ], [ 89.066, 21.936 ]
      ]
    }
  }
]
}
